{"type": "FeatureCollection", "features": [ {"type": "Feature", "properties": {"norad_id": 37902, "name": "FENGYUN 1C DEB", "group": "fengyun-1c-debris", "lat": -27.427440731592156, "lon": 27.048509967647746, "alt_km": 1042.5328887549704, "timestamp": "2025-12-17T23:38:07.143430+00:00", "meta": {"OBJECT_NAME": "FENGYUN 1C DEB", "OBJECT_ID": "1999-025ENB", "EPOCH": "2025-12-07T14:03:14.833440", "MEAN_MOTION": 13.52640367, "ECCENTRICITY": 0.03237878, "INCLINATION": 98.6837, "RA_OF_ASC_NODE": 202.4677, "ARG_OF_PERICENTER": 320.2654, "MEAN_ANOMALY": 37.5166, "EPHEMERIS_TYPE": 0, "CLASSIFICATION_TYPE": "U", "NORAD_CAT_ID": 37902, "ELEMENT_SET_NO": 999, "REV_AT_EPOCH": 62907, "BSTAR": 0.003775391, "MEAN_MOTION_DOT": 3.447e-05, "MEAN_MOTION_DDOT": 0}, "tle": {"line1": "1 37902U 99025ENB 25341.58558835  .00003447  00000+0  37754-2 0  9993", "line2": "2 37902  98.6837 202.4677 0323787 320.2654  37.5166 13.52640367629073"}}, "geometry": {"type": "Point", "coordinates": [27.048509967647746, -27.427440731592156]}}, {"type": "Feature", "properties": {"norad_id": 37906, "name": "FENGYUN 1C DEB", "group": "fengyun-1c-debris", "lat": 15.380508662470886, "lon": 30.256170898724378, "alt_km": 842.3058140420435, "timestamp": "2025-12-17T23:38:07.143440+00:00", "meta": {"OBJECT_NAME": "FENGYUN 1C DEB", "OBJECT_ID": "1999-025ENF", "EPOCH": "2025-12-17T09:43:38.923104", "MEAN_MOTION": 13.80796617, "ECCENTRICITY": 0.01626691, "INCLINATION": 99.5992, "RA_OF_ASC_NODE": 32.3357, "ARG_OF_PERICENTER": 16.2438, "MEAN_ANOMALY": 0.3742, "EPHEMERIS_TYPE": 0, "CLASSIFICATION_TYPE": "U", "NORAD_CAT_ID": 37906, "ELEMENT_SET_NO": 999, "REV_AT_EPOCH": 59520, "BSTAR": 0.00065282289, "MEAN_MOTION_DOT": 7.13e-06, "MEAN_MOTION_DDOT": 0}, "tle": {"line1": "1 37906U 99025ENF 25351.40531161  .00000713  00000+0  65282-3 0  9993", "line2": "2 37906  99.5992  32.3357 0162669  16.2438   0.3742 13.80796617595202"}}, "geometry": {"type": "Point", "coordinates": [30.256170898724378, 15.380508662470886]}}, {"type": "Feature", "properties": {"norad_id": 37907, "name": "FENGYUN 1C DEB", "group": "fengyun-1c-debris", "lat": 44.244839171893275, "lon": 96.16815733556413, "alt_km": 835.6113803834915, "timestamp": "2025-12-17T23:38:07.143450+00:00", "meta": {"OBJECT_NAME": "FENGYUN 1C DEB", "OBJECT_ID": "1999-025ENG", "EPOCH": "2025-12-11T13:55:19.191936", "MEAN_MOTION": 14.23531669, "ECCENTRICITY": 0.00636609, "INCLINATION": 99.0808, "RA_OF_ASC_NODE": 98.5214, "ARG_OF_PERICENTER": 188.9882, "MEAN_ANOMALY": 171.016, "EPHEMERIS_TYPE": 0, "CLASSIFICATION_TYPE": "U", "NORAD_CAT_ID": 37907, "ELEMENT_SET_NO": 999, "REV_AT_EPOCH": 83256, "BSTAR": 0.0046875695, "MEAN_MOTION_DOT": 0.0001086, "MEAN_MOTION_DDOT": 0}, "tle": {"line1": "1 37907U 99025ENG 25345.58008324  .00010860  00000+0  46876-2 0  9997", "line2": "2 37907  99.0808  98.5214 0063660 188.9882 171.0160 14.23531669832566"}}, "geometry": {"type": "Point", "coordinates": [96.16815733556413, 44.244839171893275]}}, {"type": "Feature", "properties": {"norad_id": 37908, "name": "FENGYUN 1C DEB", "group": "fengyun-1c-debris", "lat": 64.88377939416593, "lon": 4.092569644767242, "alt_km": 749.7490012834942, "timestamp": "2025-12-17T23:38:07.143460+00:00", "meta": {"OBJECT_NAME": "FENGYUN 1C DEB", "OBJECT_ID": "1999-025ENH", "EPOCH": "2025-12-06T19:52:32.356992", "MEAN_MOTION": 14.36573191, "ECCENTRICITY": 0.00744593, "INCLINATION": 99.1512, "RA_OF_ASC_NODE": 12.3562, "ARG_OF_PERICENTER": 174.8209, "MEAN_ANOMALY": 185.3763, "EPHEMERIS_TYPE": 0, "CLASSIFICATION_TYPE": "U", "NORAD_CAT_ID": 37908, "ELEMENT_SET_NO": 999, "REV_AT_EPOCH": 63976, "BSTAR": 0.0009644739, "MEAN_MOTION_DOT": 2.877e-05, "MEAN_MOTION_DDOT": 0}, "tle": {"line1": "1 37908U 99025ENH 25340.82815228  .00002877  00000+0  96447-3 0  9998", "line2": "2 37908  99.1512  12.3562 0074459 174.8209 185.3763 14.36573191639769"}}, "geometry": {"type": "Point", "coordinates": [4.092569644767242, 64.88377939416593]}}, {"type": "Feature", "properties": {"norad_id": 37912, "name": "FENGYUN 1C DEB", "group": "fengyun-1c-debris", "lat": -59.15322222770553, "lon": -23.455606676637498, "alt_km": 878.8897065065876, "timestamp": "2025-12-17T23:38:07.143471+00:00", "meta": {"OBJECT_NAME": "FENGYUN 1C DEB", "OBJECT_ID": "1999-025ENM", "EPOCH": "2025-12-16T08:47:31.823520", "MEAN_MOTION": 14.11525862, "ECCENTRICITY": 0.00925601, "INCLINATION": 99.2267, "RA_OF_ASC_NODE": 319.0878, "ARG_OF_PERICENTER": 49.9948, "MEAN_ANOMALY": 310.9301, "EPHEMERIS_TYPE": 0, "CLASSIFICATION_TYPE": "U", "NORAD_CAT_ID": 37912, "ELEMENT_SET_NO": 999, "REV_AT_EPOCH": 77339, "BSTAR": 0.0019255399, "MEAN_MOTION_DOT": 3.592e-05, "MEAN_MOTION_DDOT": 0}, "tle": {"line1": "1 37912U 99025ENM 25350.36634055  .00003592  00000+0  19255-2 0  9996", "line2": "2 37912  99.2267 319.0878 0092560  49.9948 310.9301 14.11525862773391"}}, "geometry": {"type": "Point", "coordinates": [-23.455606676637498, -59.15322222770553]}}, {"type": "Feature", "properties": {"norad_id": 37918, "name": "FENGYUN 1C DEB", "group": "fengyun-1c-debris", "lat": 50.242501457206124, "lon": -69.34004934479032, "alt_km": 803.732283580378, "timestamp": "2025-12-17T23:38:07.143481+00:00", "meta": {"OBJECT_NAME": "FENGYUN 1C DEB", "OBJECT_ID": "1999-025ENT", "EPOCH": "2025-12-16T15:35:18.492576", "MEAN_MOTION": 14.34401089, "ECCENTRICITY": 0.00549656, "INCLINATION": 99.028, "RA_OF_ASC_NODE": 300.2835, "ARG_OF_PERICENTER": 272.0908, "MEAN_ANOMALY": 87.3982, "EPHEMERIS_TYPE": 0, "CLASSIFICATION_TYPE": "U", "NORAD_CAT_ID": 37918, "ELEMENT_SET_NO": 999, "REV_AT_EPOCH": 3598, "BSTAR": 0.00054462571, "MEAN_MOTION_DOT": 1.511e-05, "MEAN_MOTION_DDOT": 0}, "tle": {"line1": "1 37918U 99025ENT 25350.64951959  .00001511  00000+0  54463-3 0  9998", "line2": "2 37918  99.0280 300.2835 0054965 272.0908  87.3982 14.34401089 35982"}}, "geometry": {"type": "Point", "coordinates": [-69.34004934479032, 50.242501457206124]}}, {"type": "Feature", "properties": {"norad_id": 37919, "name": "FENGYUN 1C DEB", "group": "fengyun-1c-debris", "lat": 77.46431920278913, "lon": -115.72685023706009, "alt_km": 788.8537910610585, "timestamp": "2025-12-17T23:38:07.143492+00:00", "meta": {"OBJECT_NAME": "FENGYUN 1C DEB", "OBJECT_ID": "1999-025ENU", "EPOCH": "2025-12-12T06:55:51.957984", "MEAN_MOTION": 14.2676163, "ECCENTRICITY": 0.00496798, "INCLINATION": 99.0576, "RA_OF_ASC_NODE": 284.2227, "ARG_OF_PERICENTER": 17.6806, "MEAN_ANOMALY": 342.6088, "EPHEMERIS_TYPE": 0, "CLASSIFICATION_TYPE": "U", "NORAD_CAT_ID": 37919, "ELEMENT_SET_NO": 999, "REV_AT_EPOCH": 64902, "BSTAR": 0.00082874062, "MEAN_MOTION_DOT": 1.986e-05, "MEAN_MOTION_DDOT": 0}, "tle": {"line1": "1 37919U 99025ENU 25346.28879581  .00001986  00000+0  82874-3 0  9997", "line2": "2 37919  99.0576 284.2227 0049679  17.6806 342.6088 14.26761630649025"}}, "geometry": {"type": "Point", "coordinates": [-115.72685023706009, 77.46431920278913]}}, {"type": "Feature", "properties": {"norad_id": 37921, "name": "FENGYUN 1C DEB", "group": "fengyun-1c-debris", "lat": 40.45337154557098, "lon": -139.26661953421473, "alt_km": 871.2566165425833, "timestamp": "2025-12-17T23:38:07.143502+00:00", "meta": {"OBJECT_NAME": "FENGYUN 1C DEB", "OBJECT_ID": "1999-025ENW", "EPOCH": "2025-12-15T09:01:05.069568", "MEAN_MOTION": 13.95156429, "ECCENTRICITY": 0.00843191, "INCLINATION": 99.0218, "RA_OF_ASC_NODE": 30.3959, "ARG_OF_PERICENTER": 91.5684, "MEAN_ANOMALY": 269.5138, "EPHEMERIS_TYPE": 0, "CLASSIFICATION_TYPE": "U", "NORAD_CAT_ID": 37921, "ELEMENT_SET_NO": 999, "REV_AT_EPOCH": 63184, "BSTAR": 6.6280037e-05, "MEAN_MOTION_DOT": 4.9e-07, "MEAN_MOTION_DDOT": 0}, "tle": {"line1": "1 37921U 99025ENW 25349.37575312  .00000049  00000+0  66280-4 0  9991", "line2": "2 37921  99.0218  30.3959 0084319  91.5684 269.5138 13.95156429631841"}}, "geometry": {"type": "Point", "coordinates": [-139.26661953421473, 40.45337154557098]}}, {"type": "Feature", "properties": {"norad_id": 37925, "name": "FENGYUN 1C DEB", "group": "fengyun-1c-debris", "lat": 75.44843656622425, "lon": -176.23617772901974, "alt_km": 635.3081202706862, "timestamp": "2025-12-17T23:38:07.143512+00:00", "meta": {"OBJECT_NAME": "FENGYUN 1C DEB", "OBJECT_ID": "1999-025EPA", "EPOCH": "2025-12-14T09:18:34.175520", "MEAN_MOTION": 14.80339086, "ECCENTRICITY": 0.00565241, "INCLINATION": 99.0864, "RA_OF_ASC_NODE": 217.7592, "ARG_OF_PERICENTER": 337.9668, "MEAN_ANOMALY": 21.9111, "EPHEMERIS_TYPE": 0, "CLASSIFICATION_TYPE": "U", "NORAD_CAT_ID": 37925, "ELEMENT_SET_NO": 999, "REV_AT_EPOCH": 65707, "BSTAR": 0.001911367, "MEAN_MOTION_DOT": 0.00014939, "MEAN_MOTION_DDOT": 0}, "tle": {"line1": "1 37925U 99025EPA 25348.38789555  .00014939  00000+0  19114-2 0  9996", "line2": "2 37925  99.0864 217.7592 0056524 337.9668  21.9111 14.80339086657073"}}, "geometry": {"type": "Point", "coordinates": [-176.23617772901974, 75.44843656622425]}}, {"type": "Feature", "properties": {"norad_id": 37926, "name": "FENGYUN 1C DEB", "group": "fengyun-1c-debris", "lat": -51.948611507631355, "lon": 66.43104615231113, "alt_km": 825.1284868877665, "timestamp": "2025-12-17T23:38:07.143523+00:00", "meta": {"OBJECT_NAME": "FENGYUN 1C DEB", "OBJECT_ID": "1999-025EPB", "EPOCH": "2025-12-17T03:56:46.892832", "MEAN_MOTION": 14.24250242, "ECCENTRICITY": 0.00543632, "INCLINATION": 98.7244, "RA_OF_ASC_NODE": 54.3031, "ARG_OF_PERICENTER": 208.7, "MEAN_ANOMALY": 214.0212, "EPHEMERIS_TYPE": 0, "CLASSIFICATION_TYPE": "U", "NORAD_CAT_ID": 37926, "ELEMENT_SET_NO": 999, "REV_AT_EPOCH": 74333, "BSTAR": 0.0011962939, "MEAN_MOTION_DOT": 2.759e-05, "MEAN_MOTION_DDOT": 0}, "tle": {"line1": "1 37926U 99025EPB 25351.16443163  .00002759  00000+0  11963-2 0  9990", "line2": "2 37926  98.7244  54.3031 0054363 208.7000 214.0212 14.24250242743335"}}, "geometry": {"type": "Point", "coordinates": [66.43104615231113, -51.948611507631355]}}]}